[
  {
    "name": "KUIPER-00527",
    "noradId": "69269",
    "line1": "1 69269U 26118C   26198.91668981 -.01088680  00000+0 -53651-1 0  9997",
    "line2": "2 69269  51.8744 265.7934 0008341 301.9002  39.6520 15.20533421  2362"
  },
  {
    "name": "KUIPER-00562",
    "noradId": "69270",
    "line1": "1 69270U 26118D   26198.91301473  .00013294  00000+0  35830-3 0  9996",
    "line2": "2 69270  51.8704 264.3589 0000474  32.9862 327.1155 15.38131406  8715"
  },
  {
    "name": "KUIPER-00570",
    "noradId": "69271",
    "line1": "1 69271U 26118E   26198.91668981 -.00061360  00000+0 -52881-2 0  9990",
    "line2": "2 69271  51.8866 268.0899 0007847 316.1473 273.7297 14.97055728  5835"
  },
  {
    "name": "KUIPER-00572",
    "noradId": "69272",
    "line1": "1 69272U 26118F   26198.91668981 -.01704182  00000+0 -88355-1 0  9992",
    "line2": "2 69272  51.8757 265.4164 0006029 290.2945 254.0272 15.19246609  5737"
  },
  {
    "name": "KUIPER-00581",
    "noradId": "69273",
    "line1": "1 69273U 26118G   26198.91668981 -.00061548  00000+0 -54899-2 0  9991",
    "line2": "2 69273  51.8930 267.7922 0004838 320.2443  88.0736 14.95739664  3033"
  },
  {
    "name": "KUIPER-00584",
    "noradId": "69274",
    "line1": "1 69274U 26118H   26198.91668981 -.00088157  00000+0 -10090-1 0  9991",
    "line2": "2 69274  51.8981 270.0187 0009499 312.2155  22.8753 14.85970503  5652"
  },
  {
    "name": "KUIPER-00587",
    "noradId": "69275",
    "line1": "1 69275U 26118J   26198.91668981 -.00009430  00000+0 -27445-3 0  9993",
    "line2": "2 69275  51.8645 264.9000 0007939 301.3565 157.0253 15.33613245  5586"
  },
  {
    "name": "KUIPER-00590",
    "noradId": "69276",
    "line1": "1 69276U 26118K   26198.91668981 -.00356493  00000+0 -24336-1 0  9992",
    "line2": "2 69276  51.8936 266.2139 0002082  35.3185 190.7684 15.07564813  5594"
  },
  {
    "name": "KUIPER-00592",
    "noradId": "69277",
    "line1": "1 69277U 26118L   26198.91668981 -.00086393  00000+0 -50172-2 0  9990",
    "line2": "2 69277  51.8786 265.8680 0002263 145.0099 264.2704 15.11971510  4903"
  },
  {
    "name": "KUIPER-00593",
    "noradId": "69278",
    "line1": "1 69278U 26118M   26198.00002315  .00031616  00000+0  81964-3 0  9994",
    "line2": "2 69278  51.8705 268.7950 0002996 285.5044  50.0392 15.38734794  4768"
  },
  {
    "name": "KUIPER-00594",
    "noradId": "69279",
    "line1": "1 69279U 26118N   26198.91613210  .00011963  00000+0  33036-3 0  9997",
    "line2": "2 69279  51.8696 264.3820 0001698  68.3044 291.8123 15.37481187  8711"
  },
  {
    "name": "KUIPER-00595",
    "noradId": "69280",
    "line1": "1 69280U 26118P   26196.57873573  .00012055  00000+0  33298-3 0  9992",
    "line2": "2 69280  51.8703 275.7170 0001284   1.8279 358.2712 15.37465777  8381"
  },
  {
    "name": "KUIPER-00596",
    "noradId": "69281",
    "line1": "1 69281U 26118Q   26198.91668981 -.00092361  00000+0 -10691-1 0  9998",
    "line2": "2 69281  51.8993 269.8818 0011151 311.7526 120.9720 14.85525053  5531"
  },
  {
    "name": "KUIPER-00597",
    "noradId": "69282",
    "line1": "1 69282U 26118R   26198.48999337  .00013302  00000+0  36198-3 0  9991",
    "line2": "2 69282  51.8637 266.7470 0006268 300.4647  59.5720 15.37822507  8643"
  },
  {
    "name": "KUIPER-00599",
    "noradId": "69283",
    "line1": "1 69283U 26118S   26198.91668981 -.01150554  00000+0 -39906-1 0  9990",
    "line2": "2 69283  51.8701 264.7234 0005124 294.7949 270.0668 15.32262089  3848"
  },
  {
    "name": "KUIPER-00600",
    "noradId": "69284",
    "line1": "1 69284U 26118T   26198.56579628  .00010635  00000+0  29473-3 0  9993",
    "line2": "2 69284  51.8625 266.5003 0007942 300.3051  59.7150 15.37482272  8651"
  },
  {
    "name": "KUIPER-00601",
    "noradId": "69285",
    "line1": "1 69285U 26118U   26198.91668981 -.00099190  00000+0 -60896-2 0  9992",
    "line2": "2 69285  51.8871 266.0264 0003905 330.5960 300.5343 15.10043015  4452"
  },
  {
    "name": "KUIPER-00602",
    "noradId": "69286",
    "line1": "1 69286U 26118V   26198.19991894  .00012731  00000+0  35336-3 0  9991",
    "line2": "2 69286  51.8699 267.8342 0002941 309.2449  50.8276 15.37259524  8605"
  },
  {
    "name": "KUIPER-00603",
    "noradId": "69287",
    "line1": "1 69287U 26118W   26198.91668981 -.00018877  00000+0 -62564-3 0  9992",
    "line2": "2 69287  51.8699 264.6399 0003322 288.2669 289.1999 15.30222197  4634"
  },
  {
    "name": "KUIPER-00605",
    "noradId": "69288",
    "line1": "1 69288U 26118X   26198.91668981 -.00065768  00000+0 -56827-2 0  9998",
    "line2": "2 69288  51.8904 267.8602 0004499 354.2866 150.4834 14.97010203  3996"
  },
  {
    "name": "KUIPER-00606",
    "noradId": "69289",
    "line1": "1 69289U 26118Y   26198.91668981 -.01241560  00000+0 -43904-1 0  9997",
    "line2": "2 69289  51.8726 264.5729 0002498 284.8615 340.7703 15.31422916  5831"
  },
  {
    "name": "KUIPER-00607",
    "noradId": "69290",
    "line1": "1 69290U 26118Z   26198.60965194  .00011629  00000+0  31601-3 0  9992",
    "line2": "2 69290  51.8661 266.0637 0005193 283.3905  76.6503 15.38007755  8661"
  },
  {
    "name": "KUIPER-00608",
    "noradId": "69291",
    "line1": "1 69291U 26118AA  26198.62591304 -.00036819  00000+0 -10988-2 0  9997",
    "line2": "2 69291  51.8592 266.8687 0009130 308.2735  51.7428 15.33890576  8656"
  },
  {
    "name": "KUIPER-00610",
    "noradId": "69292",
    "line1": "1 69292U 26118AB  26198.90868586  .00018458  00000+0  48921-3 0  9994",
    "line2": "2 69292  51.8712 264.3337 0001438 305.6819  54.4034 15.38379266  8716"
  },
  {
    "name": "KUIPER-00613",
    "noradId": "69293",
    "line1": "1 69293U 26118AC  26198.91668981 -.00056324  00000+0 -49632-2 0  9998",
    "line2": "2 69293  51.8908 267.8374 0004814 318.3700 133.3207 14.96168382  5774"
  },
  {
    "name": "KUIPER-00618",
    "noradId": "69294",
    "line1": "1 69294U 26118AD  26198.20528414  .00013199  00000+0  36207-3 0  9993",
    "line2": "2 69294  51.8694 267.8670 0000748 331.3106  28.7839 15.37592177  8605"
  },
  {
    "name": "KUIPER-00620",
    "noradId": "69295",
    "line1": "1 69295U 26118AE  26198.90789478  .00012970  00000+0  34221-3 0  9990",
    "line2": "2 69295  51.8694 264.3285 0000974 278.0495  82.0382 15.38814564  8715"
  },
  {
    "name": "KUIPER-00423",
    "noradId": "69592",
    "line1": "1 69592U 26140A   26198.52089892  .00011275  00000+0  30044-3 0  9992",
    "line2": "2 69592  51.8779 251.7881 0013238 277.0696  82.8786 15.38584866  5903"
  },
  {
    "name": "KUIPER-00428",
    "noradId": "69593",
    "line1": "1 69593U 26140B   26197.52158334  .00011038  00000+0  31057-3 0  9992",
    "line2": "2 69593  51.8788 257.0785 0007621  36.6922 323.4585 15.36968930  5745"
  },
  {
    "name": "KUIPER-00481",
    "noradId": "69594",
    "line1": "1 69594U 26140C   26198.53289958  .00011117  00000+0  30168-3 0  9992",
    "line2": "2 69594  51.8774 251.8581 0010913 290.2348  69.7466 15.38062050  5901"
  },
  {
    "name": "KUIPER-00490",
    "noradId": "69595",
    "line1": "1 69595U 26140D   26198.47778924  .00011263  00000+0  30647-3 0  9996",
    "line2": "2 69595  51.8766 252.2321 0006782 348.7143  11.3691 15.37993917  5896"
  },
  {
    "name": "KUIPER-00493",
    "noradId": "69596",
    "line1": "1 69596U 26140E   26198.63322415 -.00252047  00000+0 -73414-2 0  9992",
    "line2": "2 69596  51.8791 251.7799 0008725  46.9351 313.2364 15.35807109  5914"
  },
  {
    "name": "KUIPER-00496",
    "noradId": "69597",
    "line1": "1 69597U 26140F   26198.53048608  .00018527  00000+0  55946-3 0  9993",
    "line2": "2 69597  51.8768 252.5803 0011237  53.9142 306.2882 15.34244541  5890"
  },
  {
    "name": "KUIPER-00513",
    "noradId": "69598",
    "line1": "1 69598U 26140G   26198.14937032  .00014538  00000+0  38986-3 0  9992",
    "line2": "2 69598  51.8795 253.7949 0007351 346.2552  13.8234 15.38190705  5843"
  },
  {
    "name": "KUIPER-00516",
    "noradId": "69599",
    "line1": "1 69599U 26140H   26198.15838340  .00016165  00000+0  44019-3 0  9998",
    "line2": "2 69599  51.8776 253.8435 0007029   2.7166 357.3858 15.37626162  5849"
  },
  {
    "name": "KUIPER-00517",
    "noradId": "69600",
    "line1": "1 69600U 26140J   26198.52310367  .00012276  00000+0  32428-3 0  9996",
    "line2": "2 69600  51.8760 251.7914 0010474 300.2507  59.7443 15.38792661  5906"
  },
  {
    "name": "KUIPER-00520",
    "noradId": "69601",
    "line1": "1 69601U 26140K   26198.54913896  .00015927  00000+0  43303-3 0  9995",
    "line2": "2 69601  51.8811 251.9731 0006983   7.9072 352.2023 15.37687402  5901"
  },
  {
    "name": "KUIPER-00522",
    "noradId": "69602",
    "line1": "1 69602U 26140L   26197.54584076  .00014289  00000+0  37748-3 0  9995",
    "line2": "2 69602  51.8765 256.4972 0013125 273.5705  86.3781 15.38614832  5754"
  },
  {
    "name": "KUIPER-00528",
    "noradId": "69603",
    "line1": "1 69603U 26140M   26197.57708162  .00015171  00000+0  41531-3 0  9999",
    "line2": "2 69603  51.8776 256.6977 0005937   4.3015 355.8022 15.37521210  5758"
  },
  {
    "name": "KUIPER-00532",
    "noradId": "69604",
    "line1": "1 69604U 26140N   26198.56478153  .00013400  00000+0  37928-3 0  9992",
    "line2": "2 69604  51.8772 252.0635 0005252  40.3376 319.7999 15.36593077  5904"
  },
  {
    "name": "KUIPER-00533",
    "noradId": "69605",
    "line1": "1 69605U 26140P   26198.47007380  .00012339  00000+0  33123-3 0  9996",
    "line2": "2 69605  51.8770 252.1844 0007722 334.6511  25.4096 15.38310764  5899"
  },
  {
    "name": "KUIPER-00534",
    "noradId": "69606",
    "line1": "1 69606U 26140Q   26198.44984064  .00012238  00000+0  32336-3 0  9990",
    "line2": "2 69606  51.8806 252.0642 0013271 277.4258  82.5221 15.38758335  5897"
  },
  {
    "name": "KUIPER-00537",
    "noradId": "69607",
    "line1": "1 69607U 26140R   26198.52757926  .00012076  00000+0  37047-3 0  9999",
    "line2": "2 69607  51.8783 252.5651 0010666  62.7872 297.4200 15.34117941  5891"
  }
]